[{"OBJECT_NAME":"STARLINK-1612","OBJECT_ID":"2020-057AZ","EPOCH":"2026-03-10T00:00:02.999808","MEAN_MOTION":15.81024869,"ECCENTRICITY":0.00039603,"INCLINATION":53.0377,"RA_OF_ASC_NODE":210.2919,"ARG_OF_PERICENTER":268.4392,"MEAN_ANOMALY":276.0731,"EPHEMERIS_TYPE":0,"CLASSIFICATION_TYPE":"U","NORAD_CAT_ID":46164,"ELEMENT_SET_NO":999,"REV_AT_EPOCH":587,"BSTAR":0.00088576983,"MEAN_MOTION_DOT":0.00179128,"MEAN_MOTION_DDOT":0},{"OBJECT_NAME":"STARLINK-36761","OBJECT_ID":"2026-034T","EPOCH":"2026-03-09T20:17:15.239328","MEAN_MOTION":15.80996076,"ECCENTRICITY":4.801e-5,"INCLINATION":53.1594,"RA_OF_ASC_NODE":210.4254,"ARG_OF_PERICENTER":145.705,"MEAN_ANOMALY":214.4004,"EPHEMERIS_TYPE":0,"CLASSIFICATION_TYPE":"U","NORAD_CAT_ID":67867,"ELEMENT_SET_NO":999,"REV_AT_EPOCH":396,"BSTAR":0.0015816249,"MEAN_MOTION_DOT":0.0032537,"MEAN_MOTION_DDOT":0}]
